satNo,name,line1,line2,inclination,apogee,raan,argument_of_perigee,eccentricity,mean_motion,hdbscan_labels
66628,STARLINK-35862,1 66628U 25271M   26027.13333710  .00038906  00000-0  13190-2 0  9995,2 66628  53.1587 333.0000 0001523  79.0400 281.0772 15.30197293 11200,53.1587,483.40391879645455,333.0,79.04,0.0001523,15.30197293,-1
66630,STARLINK-35949,1 66630U 25271P   26027.25001157  .00079044  00000-0  26570-2 0  9992,2 66630  53.1603 332.2758 0001530 102.9569 273.3197 15.30147202  5903,53.1603,483.55830625043063,332.2758,102.9569,0.000153,15.30147202,1587
66631,STARLINK-35965,1 66631U 25271Q   26027.25001157  .00098820  00000-0  33116-2 0  9990,2 66631  53.1602 332.1714 0000782  65.4868   3.0534 15.30130082  5841,53.1602,483.09678837151455,332.1714,65.4868,7.82e-05,15.30130082,1587
66632,STARLINK-35973,1 66632U 25271R   26026.82113169  .00101911  00000-0  25191-2 0  9990,2 66632  53.1581 334.6152 0001333  97.7040 262.4117 15.39677654 11119,53.1581,455.1085638495069,334.6152,97.704,0.0001333,15.39677654,-1
66633,STARLINK-35948,1 66633U 25271S   26027.08043591  .00091486  00000-0  22728-2 0  9999,2 66633  53.1593 333.3866 0001061  75.8804 284.2319 15.39579714 11196,53.1593,455.21240169046075,333.3866,75.8804,0.0001061,15.39579714,-1
66634,STARLINK-35967,1 66634U 25271T   26027.14073387  .00044831  00000-0  11238-2 0  9999,2 66634  53.1596 333.0511 0001041  56.3153 303.7951 15.39631596 11166,53.1596,455.04539851662145,333.0511,56.3153,0.0001041,15.39631596,1639
66635,STARLINK-35955,1 66635U 25271U   26027.25001157  .00077432  00000-0  25369-2 0  9991,2 66635  53.1586 332.5618 0001237  76.7043 155.4613 15.30985750  5849,53.1586,480.8544345840793,332.5618,76.7043,0.0001237,15.3098575,-1
66636,STARLINK-35968,1 66636U 25271V   26027.25001157  .00077406  00000-0  26031-2 0  9990,2 66636  53.1586 332.6105 0001069  71.5473 136.0789 15.30142238  5840,53.1586,483.2571835385831,332.6105,71.5473,0.0001069,15.30142238,-1
66637,STARLINK-35953,1 66637U 25271W   26026.93570042 -.00399404  00000-0 -13022-1 0  9991,2 66637  53.1597 333.9023 0002321  91.2963 268.8305 15.32976032 11171,53.1597,475.6645911047887,333.9023,91.2963,0.0002321,15.32976032,-1
66638,STARLINK-35972,1 66638U 25271X   26026.66667824  .00060900  00000-0  20542-2 0  9997,2 66638  53.1586 335.3859 0001085  88.2696 109.2205 15.30157397  5867,53.1586,483.2228797510434,335.3859,88.2696,0.0001085,15.30157397,-1
66639,STARLINK-35908,1 66639U 25271Y   26027.25001157  .00073318  00000-0  24673-2 0  9991,2 66639  53.1579 332.4935 0001366  85.9236 179.8620 15.30147155  5741,53.1579,483.4460490518082,332.4935,85.9236,0.0001366,15.30147155,1679
66640,STARLINK-35921,1 66640U 25271Z   26027.12214367  .00075262  00000-0  18714-2 0  9997,2 66640  53.1600 332.9338 0001659  46.1687 313.9455 15.39646501 11207,53.16,455.42314706115985,332.9338,46.1687,0.0001659,15.39646501,1639
66641,STARLINK-35923,1 66641U 25271AA  26027.16182722  .00040958  00000-0  13874-2 0  9997,2 66641  53.1624 333.1740 0001165 100.6820 259.4312 15.30200319 11201,53.1624,483.1495323481113,333.174,100.682,0.0001165,15.30200319,1724
66642,STARLINK-35926,1 66642U 25271AB  26027.08490436  .00035466  00000-0  12035-2 0  9999,2 66642  53.1594 333.4048 0001112  94.5286 265.5842 15.30210489 11150,53.1594,483.0828406024203,333.4048,94.5286,0.0001112,15.30210489,-1
66643,STARLINK-35918,1 66643U 25271AC  26027.25001157  .00086017  00000-0  28860-2 0  9998,2 66643  53.1601 332.3200 0001341  77.2121 275.7714 15.30165080  5855,53.1601,483.37538472249264,332.32,77.2121,0.0001341,15.3016508,1587
66644,STARLINK-35938,1 66644U 25271AD  26027.15866224  .00043625  00000-0  14754-2 0  9997,2 66644  53.1611 333.1572 0000949 129.7895 230.3189 15.30223319 11201,53.1611,482.9328204767257,333.1572,129.7895,9.49e-05,15.30223319,1724
66645,SZ-22,1 66645U 25272A   26027.22862482  .00029284  00000-0  33868-3 0  9992,2 66645  41.4668 100.1488 0009611  12.9721 347.1363 15.61162625267646,41.4668,397.933969785423,100.1488,12.9721,0.0009611,15.61162625,411
66655,CAS500-3,1 66655U 25274F   26026.77037821  .00000015  00000-0  70001-5 0  9998,2 66655  97.7331 318.0809 0003176 214.3294 145.7720 14.91407661  9117,97.7331,602.8966161921676,318.0809,214.3294,0.0003176,14.91407661,76
66664,SOYUZ MS-28,1 66664U 25275A   26027.14328214  .00011252  00000-0  21756-3 0  9996,2 66664  51.6321 277.7306 0011150  34.3982 325.7726 15.48216781  1283,51.6321,436.66165572709497,277.7306,34.3982,0.001115,15.48216781,959
66666,FORMOSAT-8A,1 66666U 25276A   26027.15736400  .00004342  00000-0  32990-3 0  9994,2 66666  97.6554 103.4509 0012064  71.0990 289.1542 15.02630203  8909,97.6554,574.295299616349,103.4509,71.099,0.0012064,15.02630203,-1
66667,PELICAN-5,1 66667U 25276B   26024.85502765  .00013667  00000-0  67665-3 0  9991,2 66667  97.4374 100.8801 0004438 115.4950 244.6743 15.17892570  8664,97.4374,522.4058498990936,100.8801,115.495,0.0004438,15.1789257,299
66670,HUNITY-1,1 66670U 25276E   26027.16303468  .00039622  00000-0  18645-2 0  9993,2 66670  97.4240 103.0588 0008138 145.9641 214.2117 15.19408062  9012,97.424,520.369061404705,103.0588,145.9641,0.0008138,15.19408062,-1
66672,BRO-17,1 66672U 25276G   26027.13502656  .00004565  00000-0  23482-3 0  9996,2 66672  97.4343 103.0174 0008129 125.5817 234.6175 15.16913608  9001,97.4343,527.9156915164255,103.0174,125.5817,0.0008129,15.16913608,398
66674,BRO-20,1 66674U 25276J   26027.13010811  .00005278  00000-0  26979-3 0  9991,2 66674  97.4322 103.0074 0007667 128.9049 231.2870 15.17062941  9000,97.4322,527.1445013672467,103.0074,128.9049,0.0007667,15.17062941,398
66678,LEMUR-2-DEANANDMAEVE,1 66678U 25276N   26026.26698729  .00009237  00000-0  46511-3 0  9991,2 66678  97.4361 102.2017 0007295 126.2063 233.9846 15.17390468  8873,97.4361,525.8954504274893,102.2017,126.2063,0.0007295,15.17390468,386
66679,LILIUM-2,1 66679U 25276P   26027.13165350  .00004074  00000-0  20945-3 0  9995,2 66679  97.4311 102.9980 0007296 129.9659 230.2216 15.16998851  9003,97.4311,527.083055731766,102.998,129.9659,0.0007296,15.16998851,398
66680,LEMUR-2-DEANANDMAEVE,1 66680U 25276Q   26027.12215749  .00012189  00000-0  60901-3 0  9996,2 66680  97.4373 103.0544 0007180 125.4610 234.7295 15.17588308  9000,97.4373,525.2167798389811,103.0544,125.461,0.000718,15.17588308,-1
66686,LEMUR-2-STAS-GORBUK,1 66686U 25276W   26026.45805382  .00009112  00000-0  45659-3 0  9990,2 66686  97.4402 102.4368 0006677 124.1889 235.9979 15.17569825  8903,97.4402,524.9261403370723,102.4368,124.1889,0.0006677,15.17569825,386
66688,WISDOM-A,1 66688U 25276Y   26026.65334133  .00008319  00000-0  41635-3 0  9993,2 66688  97.4378 102.6178 0006250 124.3373 235.8453 15.17639161  8935,97.4378,524.4218531650193,102.6178,124.3373,0.000625,15.17639161,385
66689,AC1-003,1 66689U 25276Z   26027.17808618  .00004403  00000-0  22318-3 0  9993,2 66689  97.4362 103.1284 0003982 126.0677 234.0926 15.17466778  9016,97.4362,523.3810296244957,103.1284,126.0677,0.0003982,15.17466778,758
66692,NUSAT-52,1 66692U 25276AC  26027.16805163  .00010048  00000-0  49726-3 0  9992,2 66692  97.4366 103.1466 0004070 132.1032 228.0549 15.17986867  9018,97.4366,521.8668147689058,103.1466,132.1032,0.000407,15.17986867,757
66694,YAM-9,1 66694U 25276AE  26027.23526417  .00010274  00000-0  58075-3 0  9992,2 66694  97.4364 103.2049 0010465  82.9986 277.2436 15.13229697  9020,97.4364,540.720841717246,103.2049,82.9986,0.0010465,15.13229697,-1
66695,IRIDE FM1,1 66695U 25276AF  26026.93805913  .00016370  00000-0  78583-3 0  9999,2 66695  97.4346 102.9766 0002764  94.0057 266.1493 15.18934011  8981,97.4346,518.1016456847973,102.9766,94.0057,0.0002764,15.18934011,-1
66696,IRIDE FM2,1 66696U 25276AG  26027.16853146  .00014958  00000-0  73658-3 0  9995,2 66696  97.4335 103.1186 0004770 134.9860 225.1762 15.18061261  9011,97.4335,522.1239073307635,103.1186,134.986,0.000477,15.18061261,603
66697,IRIDE FM3,1 66697U 25276AH  26027.13993445  .00014307  00000-0  69137-3 0  9995,2 66697  97.4338 103.1568 0002809  95.1546 265.0009 15.18733593  9010,97.4338,518.7387025961419,103.1568,95.1546,0.0002809,15.18733593,755
66698,IRIDE FM4,1 66698U 25276AJ  26027.17237909  .00010614  00000-0  52687-3 0  9995,2 66698  97.4337 103.1150 0005183 128.9526 231.2171 15.17860800  9014,97.4337,523.0153771884953,103.115,128.9526,0.0005183,15.178608,603
66699,IRIDE FM5,1 66699U 25276AK  26025.19229884  .00013541  00000-0  66911-3 0  9996,2 66699  97.4352 101.1856 0005379 134.5850 225.5824 15.17958943  8716,97.4352,522.8532677498916,101.1856,134.585,0.0005379,15.17958943,299
66700,IRIDE FM6,1 66700U 25276AL  26027.13692698  .00015246  00000-0  73285-3 0  9998,2 66700  97.4370 103.1860 0003076  91.0089 269.1498 15.18903223  9016,97.437,518.4096230703005,103.186,91.0089,0.0003076,15.18903223,661
66701,IRIDE FM7,1 66701U 25276AM  26027.17028931  .00012947  00000-0  63969-3 0  9999,2 66701  97.4367 103.1422 0005408 128.6472 231.5246 15.17974573  9010,97.4367,522.8259267219454,103.1422,128.6472,0.0005408,15.17974573,757
66702,IRIDE FM8,1 66702U 25276AN  26027.16948411  .00014676  00000-0  72234-3 0  9999,2 66702  97.4345 103.1248 0005125 133.6247 226.5413 15.18079066  9019,97.4345,522.3145965720397,103.1248,133.6247,0.0005125,15.18079066,603
66703,PELICAN-6,1 66703U 25276AP  26026.63906522  .00005140  00000-0  24907-3 0  9998,2 66703  97.4363 102.6179 0001949 126.0818 234.0597 15.18970616  8935,97.4363,517.4296693465719,102.6179,126.0818,0.0001949,15.18970616,385
66704,FLOCK 4H 1,1 66704U 25276AQ  26027.14163286  .00010353  00000-0  50200-3 0  9995,2 66704  97.4334 103.1475 0003552  91.6563 268.5078 15.18695304  9019,97.4334,519.3662762239612,103.1475,91.6563,0.0003552,15.18695304,756
66705,FLOCK 4H 2,1 66705U 25276AR  26027.13956382  .00011105  00000-0  53668-3 0  9999,2 66705  97.4325 103.1478 0002903  94.9966 265.1600 15.18793478  9010,97.4325,518.6223399015748,103.1478,94.9966,0.0002903,15.18793478,756
